TIANWANG 1C (TW-1C)     
1 40926U 15051B   17224.49044381  .00005114  00000-0  11627-3 0  9993
2 40926  97.2252 263.6271 0010454 333.6376 134.0579 15.43394604105602
TIANWANG 1B (TW-1B)     
1 40927U 15051C   17224.47134191  .00004881  00000-0  11528-3 0  9991
2 40927  97.2344 263.6000 0010540 345.3357 121.8655 15.42273390105549
TIANWANG 1A (TW-1A)     
1 40928U 15051D   17224.57311892  .00002493  00000-0  72195-4 0  9993
2 40928  97.2228 259.3741 0012744   3.9306 159.4534 15.36445769105350
LAPAN-A2 (IO-86)        
1 40931U 15052B   17224.44331805  .00000740  00000-0  14047-4 0  9995
2 40931   5.9984 191.6154 0013868 321.0908  38.8213 14.76536510101296
LQSAT                   
1 40958U 15057A   17224.56272810  .00000040  00000-0  14070-4 0  9991
2 40958  97.9754 298.8899 0016868 244.0958 115.8513 14.72976545 99421
CHUBUSAT-2              
1 41338U 16012B   17224.12567742  .00000310  00000-0  17524-4 0  9996
2 41338  31.0035 116.9831 0014107 253.0944 106.8144 14.99770183 81396
CHUBUSAT-3              
1 41339U 16012C   17224.31245864  .00000297  00000-0  16454-4 0  9991
2 41339  31.0107 114.8524 0013985 261.4544  98.4501 14.99973352 81403
OUFTI-1                 
1 41458U 16025C   17224.62450959  .00001258  00000-0  70418-4 0  9992
2 41458  98.1815 265.4350 0175885 101.3018 260.8026 15.03347464 71064
E-ST@R-II               
1 41459U 16025D   17224.58506986  .00002060  00000-0  11287-3 0  9990
2 41459  98.1819 265.3304 0175928 101.6145 260.4872 15.03185691 71044
AAUSAT 4                
1 41460U 16025E   17224.48171793  .00001595  00000-0  88414-4 0  9994
2 41460  98.1730 265.3586 0168684  99.8263 262.2055 15.04119533 71057
NUSAT 1 (LO-87)         
1 41557U 16033B   17224.29967159  .00001310  00000-0  51853-4 0  9990
2 41557  97.4611 303.8157 0014724 163.3459 196.8266 15.27193307 66994
BEESAT-4                
1 41619U 16040W   17224.38079093  .00001295  00000-0  61660-4 0  9997
2 41619  97.4581 286.2178 0010859 226.0954 133.9385 15.20909541 51130
PRATHAM                 
1 41783U 16059A   17224.59145230  .00000035  00000-0  16238-4 0  9991
2 41783  98.1626 285.3683 0033216 346.3017  13.7280 14.62849209 46849
ALSAT 1N                
1 41789U 16059G   17224.46496325  .00000070  00000-0  22509-4 0  9994
2 41789  98.1638 285.8529 0028124 341.0687  18.9472 14.64063245 46849
NAYIF-1 (EO-88)         
1 42017U 17008BX  17224.60741690  .00001407  00000-0  62601-4 0  9990
2 42017  97.4909 285.9470 0007375  36.5569 323.6169 15.23149571 27079
LILACSAT-1              
1 42725U 98067ME  17224.62015823  .00010944  00000-0  15993-3 0  9991
2 42725  51.6395 116.2535 0007299 153.9607 206.1753 15.56170221 12289
MAX VALIER SAT          
1 42778U 17036P   17224.15909941  .00000942  00000-0  46286-4 0  9994
2 42778  97.4475 283.3293 0014562  74.4033 285.8808 15.20428831  7533
